OBJECT_NAME,OBJECT_ID,EPOCH,MEAN_MOTION,ECCENTRICITY,INCLINATION,RA_OF_ASC_NODE,ARG_OF_PERICENTER,MEAN_ANOMALY,EPHEMERIS_TYPE,CLASSIFICATION_TYPE,NORAD_CAT_ID,ELEMENT_SET_NO,REV_AT_EPOCH,BSTAR,MEAN_MOTION_DOT,MEAN_MOTION_DDOT
STARLINK-1423,2020-035BF,2024-01-20T18:54:13.920768,15.0640187,0.0001462,53.0545,293.2434,93.9108,266.2048,0,U,45710,999,20134,0.00048245,6.912e-05,0.0
STARLINK-1433,2020-035BG,2024-01-20T00:56:45.170016,15.06419349,0.0001095,53.0542,296.605,110.7644,249.3462,0,U,45711,999,20163,0.001007,0.00014757,0.0
STARLINK-1434,2020-035BH,2024-01-20T13:35:46.140864,15.06408392,0.0001395,53.0544,294.2411,80.7943,279.3203,0,U,45712,999,20131,-0.00014131,-2.386e-05,0.0
STARLINK-1436 (VISORSAT),2020-035BJ,2024-01-20T02:52:18.904800,15.07019218,0.0001902,53.0549,316.2187,108.5283,251.5913,0,U,45713,999,20136,0.0017041,0.00025623,0.0
STARLINK-1437,2020-035BK,2024-01-20T01:07:22.052928,15.0642862,0.000124,53.0541,296.5708,88.0376,272.0755,0,U,45714,999,20164,0.0012845,0.00018918,0.0
STARLINK-1461,2020-038A,2024-01-20T12:32:03.489504,15.06414601,0.0001585,53.0549,134.4409,75.2258,284.8906,0,U,45730,999,19987,0.00071129,0.00010333,0.0
STARLINK-1465,2020-038B,2024-01-20T12:53:16.782720,15.06418746,0.0001287,53.053,134.3723,82.6786,277.4349,0,U,45731,999,19972,0.00051428,7.391e-05,0.0
STARLINK-1466,2020-038C,2024-01-20T12:37:21.146880,15.06429355,0.0001443,53.0537,134.4191,87.5315,272.5839,0,U,45732,999,19875,0.00077711,0.00011322,0.0
STARLINK-1467,2020-038D,2024-01-20T14:05:34.257984,15.27065721,0.0006459,53.0718,92.3749,16.6376,343.4833,0,U,45733,999,19936,0.00055968,0.00014747,0.0
STARLINK-1468,2020-038E,2024-01-20T11:49:09.494400,15.23367821,0.0003546,53.0771,103.7069,159.0101,201.1042,0,U,45734,999,19919,0.0017088,0.00041047,0.0
STARLINK-1471,2020-038F,2024-01-20T14:50:02.667552,15.06425456,0.0001115,53.0531,134.0046,92.3974,267.7143,0,U,45735,999,19988,0.00070951,0.0001031,0.0
STARLINK-1474,2020-038J,2024-01-20T12:58:35.135616,15.06416212,0.0001333,53.0533,134.35,98.0869,262.0271,0,U,45738,999,19875,0.00035383,4.995e-05,0.0
STARLINK-1475,2020-038K,2024-01-20T14:53:59.807904,15.06436405,0.0001401,53.0541,93.9845,97.8008,262.314,0,U,45739,999,19932,0.001184,0.00017415,0.0
STARLINK-1479,2020-038L,2024-01-20T13:09:11.843136,15.06420646,0.0001766,53.056,134.3203,106.9955,253.1228,0,U,45740,999,19875,0.00036095,5.102e-05,0.0
STARLINK-1480,2020-038M,2024-01-20T14:02:16.543680,15.0642503,0.0001406,53.0535,134.1533,88.3469,271.7681,0,U,45741,999,19877,0.00065667,9.52e-05,0.0
STARLINK-1481,2020-038N,2024-01-20T13:51:39.223584,15.06422147,0.0001419,53.0545,134.1885,69.6962,290.4179,0,U,45742,999,19987,0.00014002,1.806e-05,0.0
STARLINK-1483,2020-038P,2024-01-20T22:00:00.999936,15.24733531,0.0002081,53.0511,132.0885,88.1578,120.3889,0,U,45743,999,19978,0.038336,0.01049965,0.0
STARLINK-1500,2020-038Q,2024-01-20T13:35:44.499264,15.06418848,0.0001281,53.0532,134.2348,83.146,276.9674,0,U,45744,999,19876,0.00057676,8.324e-05,0.0
STARLINK-1503,2020-038R,2024-01-20T16:30:53.770176,15.06418455,0.0001461,53.0534,133.6892,90.5808,269.5349,0,U,45745,999,19970,0.0004434,6.332e-05,0.0
STARLINK-1504,2020-038S,2024-01-20T13:41:02.248224,15.06441741,0.0001052,53.0527,134.2174,103.5211,256.5895,0,U,45746,999,19875,0.0014372,0.00021214,0.0
STARLINK-1506,2020-038T,2024-01-20T13:46:20.996832,15.06418284,0.000133,53.0549,134.2053,86.5427,273.5714,0,U,45747,999,19876,0.00021037,2.855e-05,0.0
STARLINK-1507,2020-038U,2024-01-20T15:03:29.113056,15.06760871,0.0001326,53.0527,133.9582,71.9803,288.1331,0,U,45748,999,19970,0.0011594,0.00017199,0.0
STARLINK-1391,2020-038W,2024-01-20T15:45:46.740672,15.06437018,0.0001524,53.0531,113.8319,82.2798,277.8364,0,U,45750,999,20017,0.0015415,0.00022777,0.0
STARLINK-1464,2020-038X,2024-01-20T12:29:24.384768,15.06397075,0.000145,53.0535,114.4458,80.4262,279.6891,0,U,45751,999,19904,4.9863e-05,4.61e-06,0.0
STARLINK-1476,2020-038Z,2024-01-20T12:45:21.117888,15.06375726,0.0001266,53.0533,114.3972,122.7144,237.3967,0,U,45753,999,19904,0.00093219,0.00013622,0.0
STARLINK-1477,2020-038AA,2024-01-20T11:15:05.252256,15.06429323,0.0001425,53.0554,114.6766,97.2046,262.9105,0,U,45754,999,19903,0.00094782,0.00013875,0.0
STARLINK-1478,2020-038AB,2024-01-20T13:17:09.935808,15.06427765,0.0001322,53.0539,114.2922,85.7516,274.3624,0,U,45755,999,19903,0.00085927,0.0001255,0.0
