STARLINK-1423           
1 45710U 20035BF  24020.78766112  .00006912  00000+0  48245-3 0  9996
2 45710  53.0545 293.2434 0001462  93.9108 266.2048 15.06401870201341
STARLINK-1433           
1 45711U 20035BG  24020.03941169  .00014757  00000+0  10070-2 0  9992
2 45711  53.0542 296.6050 0001095 110.7644 249.3462 15.06419349201639
STARLINK-1434           
1 45712U 20035BH  24020.56650626 -.00002386  00000+0 -14131-3 0  9996
2 45712  53.0544 294.2411 0001395  80.7943 279.3203 15.06408392201315
STARLINK-1436 (VISORSAT)
1 45713U 20035BJ  24020.11966325  .00025623  00000+0  17041-2 0  9993
2 45713  53.0549 316.2187 0001902 108.5283 251.5913 15.07019218201367
STARLINK-1437           
1 45714U 20035BK  24020.04678302  .00018918  00000+0  12845-2 0  9997
2 45714  53.0541 296.5708 0001240  88.0376 272.0755 15.06428620201642
STARLINK-1461           
1 45730U 20038A   24020.52226261  .00010333  00000+0  71129-3 0  9998
2 45730  53.0549 134.4409 0001585  75.2258 284.8906 15.06414601199879
STARLINK-1465           
1 45731U 20038B   24020.53699980  .00007391  00000+0  51428-3 0  9992
2 45731  53.0530 134.3723 0001287  82.6786 277.4349 15.06418746199722
STARLINK-1466           
1 45732U 20038C   24020.52593920  .00011322  00000+0  77711-3 0  9991
2 45732  53.0537 134.4191 0001443  87.5315 272.5839 15.06429355198756
STARLINK-1467           
1 45733U 20038D   24020.58720206  .00014747  00000+0  55968-3 0  9991
2 45733  53.0718  92.3749 0006459  16.6376 343.4833 15.27065721199367
STARLINK-1468           
1 45734U 20038E   24020.49247100  .00041047  00000+0  17088-2 0  9992
2 45734  53.0771 103.7069 0003546 159.0101 201.1042 15.23367821199196
STARLINK-1471           
1 45735U 20038F   24020.61808643  .00010310  00000+0  70951-3 0  9990
2 45735  53.0531 134.0046 0001115  92.3974 267.7143 15.06425456199886
STARLINK-1474           
1 45738U 20038J   24020.54068444  .00004995  00000+0  35383-3 0  9994
2 45738  53.0533 134.3500 0001333  98.0869 262.0271 15.06416212198752
STARLINK-1475           
1 45739U 20038K   24020.62083111  .00017415  00000+0  11840-2 0  9994
2 45739  53.0541  93.9845 0001401  97.8008 262.3140 15.06436405199320
STARLINK-1479           
1 45740U 20038L   24020.54805374  .00005102  00000+0  36095-3 0  9990
2 45740  53.0560 134.3203 0001766 106.9955 253.1228 15.06420646198759
STARLINK-1480           
1 45741U 20038M   24020.58491370  .00009520  00000+0  65667-3 0  9997
2 45741  53.0535 134.1533 0001406  88.3469 271.7681 15.06425030198773
STARLINK-1481           
1 45742U 20038N   24020.57753731  .00001806  00000+0  14002-3 0  9995
2 45742  53.0545 134.1885 0001419  69.6962 290.4179 15.06422147199877
STARLINK-1483           
1 45743U 20038P   24020.91667824  .01049965  00000+0  38336-1 0  9994
2 45743  53.0511 132.0885 0002081  88.1578 120.3889 15.24733531199784
STARLINK-1500           
1 45744U 20038Q   24020.56648726  .00008324  00000+0  57676-3 0  9999
2 45744  53.0532 134.2348 0001281  83.1460 276.9674 15.06418848198760
STARLINK-1503           
1 45745U 20038R   24020.68812234  .00006332  00000+0  44340-3 0  9991
2 45745  53.0534 133.6892 0001461  90.5808 269.5349 15.06418455199704
STARLINK-1504           
1 45746U 20038S   24020.57016491  .00021214  00000+0  14372-2 0  9998
2 45746  53.0527 134.2174 0001052 103.5211 256.5895 15.06441741198756
STARLINK-1506           
1 45747U 20038T   24020.57385413  .00002855  00000+0  21037-3 0  9999
2 45747  53.0549 134.2053 0001330  86.5427 273.5714 15.06418284198761
STARLINK-1507           
1 45748U 20038U   24020.62742029  .00017199  00000+0  11594-2 0  9999
2 45748  53.0527 133.9582 0001326  71.9803 288.1331 15.06760871199706
STARLINK-1391           
1 45750U 20038W   24020.65679098  .00022777  00000+0  15415-2 0  9994
2 45750  53.0531 113.8319 0001524  82.2798 277.8364 15.06437018200176
STARLINK-1464           
1 45751U 20038X   24020.52042112  .00000461  00000+0  49863-4 0  9994
2 45751  53.0535 114.4458 0001450  80.4262 279.6891 15.06397075199042
STARLINK-1476           
1 45753U 20038Z   24020.53149442  .00013622  00000+0  93219-3 0  9997
2 45753  53.0533 114.3972 0001266 122.7144 237.3967 15.06375726199040
STARLINK-1477           
1 45754U 20038AA  24020.46881079  .00013875  00000+0  94782-3 0  9995
2 45754  53.0554 114.6766 0001425  97.2046 262.9105 15.06429323199032
STARLINK-1478           
1 45755U 20038AB  24020.55358722  .00012550  00000+0  85927-3 0  9990
2 45755  53.0539 114.2922 0001322  85.7516 274.3624 15.06427765199037
